[{"OBJECT_NAME":"STARLINK-35896","OBJECT_ID":"2025-280D","EPOCH":"2026-03-09T21:21:08.123904","MEAN_MOTION":14.98331242,"ECCENTRICITY":0.00027046,"INCLINATION":70.0024,"RA_OF_ASC_NODE":334.0424,"ARG_OF_PERICENTER":274.2001,"MEAN_ANOMALY":85.8848,"EPHEMERIS_TYPE":0,"CLASSIFICATION_TYPE":"U","NORAD_CAT_ID":66824,"ELEMENT_SET_NO":999,"REV_AT_EPOCH":1610,"BSTAR":0.00032907249,"MEAN_MOTION_DOT":3.836e-5,"MEAN_MOTION_DDOT":0},{"OBJECT_NAME":"CZ-6A DEB","OBJECT_ID":"2022-151VZ","EPOCH":"2026-03-09T16:21:33.047136","MEAN_MOTION":14.85344496,"ECCENTRICITY":0.00547112,"INCLINATION":98.6299,"RA_OF_ASC_NODE":135.7677,"ARG_OF_PERICENTER":212.8524,"MEAN_ANOMALY":146.9284,"EPHEMERIS_TYPE":0,"CLASSIFICATION_TYPE":"U","NORAD_CAT_ID":55208,"ELEMENT_SET_NO":999,"REV_AT_EPOCH":17071,"BSTAR":0.0043323,"MEAN_MOTION_DOT":0.00038405,"MEAN_MOTION_DDOT":0}]
